OBJECT_NAME,OBJECT_ID,EPOCH,MEAN_MOTION,ECCENTRICITY,INCLINATION,RA_OF_ASC_NODE,ARG_OF_PERICENTER,MEAN_ANOMALY,NORAD_CAT_ID,ELEMENT_SET_NO,REV_AT_EPOCH,BSTAR,MEAN_MOTION_DOT,MEAN_MOTION_DDOT
STARLINK-34030,2025-102J,2026-03-21T06:34:25.354848,14.98305903,0.00029963,70.0039,85.3976,285.6669,74.4159,64030.0,999.0,4769.0,0.00071728452,8.471e-05,0.0
STARLINK-34024,2025-102K,2026-03-21T06:10:20.105760,14.98335626,0.00035743,69.9999,85.3384,269.2992,90.7758,64031.0,999.0,4762.0,0.00046851217,5.503e-05,0.0
STARLINK-34019,2025-102L,2026-03-21T05:28:15.380256,14.98342015,0.00035389,70.0002,85.2345,270.0016,90.0738,64032.0,999.0,4769.0,0.0003767243,4.406e-05,0.0
STARLINK-33860,2025-102M,2026-03-21T07:22:25.763232,14.98342332,0.00033412,70.0005,85.1109,271.7539,88.3237,64033.0,999.0,4770.0,0.00054691121,6.441e-05,0.0
STARLINK-33946,2025-102N,2026-03-21T04:16:24.112704,14.98341152,0.00036487,70.0006,85.4676,269.6773,90.3968,64034.0,999.0,4772.0,0.00031762603,3.7e-05,0.0
STARLINK-34046,2025-102P,2026-03-21T06:40:36.784128,14.98339185,0.00036879,70.0003,85.2932,270.0055,90.0682,64035.0,999.0,4746.0,0.00032134213,3.744e-05,0.0
STARLINK-34085,2025-102Q,2026-03-21T06:22:35.539968,14.98347853,0.00034342,70.0008,85.3638,273.6584,86.4183,64036.0,999.0,4768.0,0.00027543686,3.197e-05,0.0
STARLINK-34008,2025-102R,2026-03-21T02:52:11.307648,14.98329111,0.00043383,69.9977,85.6532,300.5948,59.4782,64037.0,999.0,4767.0,0.00078912515,9.336e-05,0.0
STARLINK-34079,2025-102S,2026-03-21T05:22:15.679776,14.98339555,0.00036462,70.0003,85.219,268.8717,91.2024,64038.0,999.0,4778.0,0.00052557487,6.185e-05,0.0
STARLINK-34089,2025-102T,2026-03-21T06:46:38.133984,14.98338025,0.00035023,70.0004,85.4226,270.3774,89.6984,64039.0,999.0,4768.0,0.00031085183,3.619e-05,0.0
STARLINK-34117,2025-102U,2026-03-21T04:51:44.191584,14.99825127,0.00090777,69.9998,85.544,265.5288,94.4835,64040.0,999.0,4761.0,0.044991872,0.00593533,0.0
STARLINK-34111,2025-102V,2026-03-21T06:10:34.109472,14.98338739,0.00037779,70.0002,85.3326,271.0158,89.0568,64041.0,999.0,4746.0,0.00028592578,3.321e-05,0.0
STARLINK-34049,2025-102W,2026-03-21T06:40:23.340288,14.98343025,0.0003532,70.0006,85.4131,270.4833,89.5921,64042.0,999.0,4768.0,0.00016094359,1.828e-05,0.0
STARLINK-34096,2025-102X,2026-03-21T06:16:20.586432,14.98337418,0.00037543,70.0001,85.3514,270.1073,89.9656,64043.0,999.0,4757.0,0.00026817122,3.109e-05,0.0
STARLINK-34081,2025-102Y,2026-03-21T06:28:23.102112,14.98318055,0.00032709,69.9999,85.3818,270.17,89.9084,64044.0,999.0,4762.0,-6.5383437e-05,-8.73e-06,0.0
STARLINK-34033,2025-102Z,2026-03-21T04:16:09.311520,14.98338818,0.00034746,70.0006,85.4622,268.1807,91.8954,64045.0,999.0,4760.0,4.0616105e-05,3.92e-06,0.0
STARLINK-33952,2025-102AA,2026-03-21T04:04:08.392512,14.98343009,0.00039303,70.0004,85.4317,271.0052,89.0656,64046.0,999.0,4767.0,0.00034276403,4.001e-05,0.0
STARLINK-33961,2025-102AB,2026-03-21T04:28:21.996480,14.98311582,0.00044767,70.0,85.4895,208.0286,152.0632,64047.0,999.0,4755.0,0.0021995842,0.00026241,0.0
TIANYI A,2025-103A,2026-03-21T05:48:03.236832,15.19175985,0.00016975,97.412,154.4387,90.9495,269.1934,64048.0,999.0,4672.0,8.4686417e-05,1.714e-05,0.0
TIANYI B,2025-103B,2026-03-21T06:30:21.229920,15.19453714,0.00037244,97.3854,154.0641,118.9631,241.1978,64049.0,999.0,4671.0,0.00018791846,3.917e-05,0.0
TIANYI C,2025-103C,2026-03-21T06:28:51.038688,15.19449068,0.00048197,97.3809,153.8861,108.4951,251.6808,64050.0,999.0,4671.0,0.00016727392,3.479e-05,0.0
TIANYI D,2025-103D,2026-03-21T06:10:30.751968,15.17688316,0.00037329,97.3882,153.587,127.723,232.4343,64051.0,999.0,4666.0,0.00022549848,4.479e-05,0.0
TIANYI E,2025-103E,2026-03-21T07:17:20.828256,15.22053854,0.00044304,97.3804,154.2996,115.4022,244.7673,64052.0,999.0,4673.0,0.00056694156,0.00012911,0.0
TIANYI F,2025-103F,2026-03-21T06:23:26.466720,15.18342989,0.00047843,97.3862,153.7915,109.787,250.3881,64053.0,999.0,4670.0,0.00023530364,4.766e-05,0.0
QPS-SAR-10 (WADATSUMI-I),2025-104A,2026-03-21T05:49:06.500640,15.0093685,0.00107774,42.0048,43.7394,129.8038,230.3738,64055.0,999.0,4621.0,0.0004857531,6.119e-05,0.0
TIANQI-16,2025-105A,2026-03-21T05:25:22.337472,13.99118717,0.00123932,44.9844,53.7151,318.8507,41.1391,64058.0,999.0,4287.0,8.5876764e-05,-3e-08,0.0
TIANQI-17,2025-105B,2026-03-21T05:51:39.760416,13.99120057,0.00116016,44.9805,52.989,321.8042,38.1968,64059.0,999.0,4288.0,0.00010023748,1.8e-07,0.0
TIANQI-18,2025-105C,2026-03-21T04:59:08.278080,13.99101007,0.00116019,44.9851,53.6252,328.9867,31.028,64060.0,999.0,4287.0,9.2346369e-05,6e-08,0.0
TIANQI-20,2025-105D,2026-03-21T04:32:22.896960,13.99104304,0.00111092,44.9857,53.5285,322.6573,37.3487,64061.0,999.0,4288.0,9.1579723e-05,5e-08,0.0
CHINASAT 3B,2025-106A,2026-03-18T21:07:30.492192,1.00271246,0.0001639,0.0159,346.4554,347.019,327.1332,64062.0,999.0,315.0,0.0,-4.3e-07,0.0
