STARLINK-34030          
1 64030U 25102J   26080.27390457  .00008471  00000+0  71728-3 0  9993
2 64030  70.0039  85.3976 0002996 285.6669  74.4159 14.98305903 47698
STARLINK-34024          
1 64031U 25102K   26080.25717715  .00005503  00000+0  46851-3 0  9994
2 64031  69.9999  85.3384 0003574 269.2992  90.7758 14.98335626 47628
STARLINK-34019          
1 64032U 25102L   26080.22795579  .00004406  00000+0  37672-3 0  9998
2 64032  70.0002  85.2345 0003538 270.0016  90.0738 14.98342015 47698
STARLINK-33860          
1 64033U 25102M   26080.30724263  .00006441  00000+0  54691-3 0  9991
2 64033  70.0005  85.1109 0003341 271.7539  88.3237 14.98342332 47707
STARLINK-33946          
1 64034U 25102N   26080.17805686  .00003700  00000+0  31763-3 0  9996
2 64034  70.0006  85.4676 0003648 269.6773  90.3968 14.98341152 47722
STARLINK-34046          
1 64035U 25102P   26080.27820352  .00003744  00000+0  32134-3 0  9996
2 64035  70.0003  85.2932 0003687 270.0055  90.0682 14.98339185 47469
STARLINK-34085          
1 64036U 25102Q   26080.26568912  .00003197  00000+0  27544-3 0  9998
2 64036  70.0008  85.3638 0003434 273.6584  86.4183 14.98347853 47685
STARLINK-34008          
1 64037U 25102R   26080.11957532  .00009336  00000+0  78913-3 0  9990
2 64037  69.9977  85.6532 0004338 300.5948  59.4782 14.98329111 47673
STARLINK-34079          
1 64038U 25102S   26080.22379259  .00006185  00000+0  52557-3 0  9992
2 64038  70.0003  85.2190 0003646 268.8717  91.2024 14.98339555 47782
STARLINK-34089          
1 64039U 25102T   26080.28238581  .00003619  00000+0  31085-3 0  9993
2 64039  70.0004  85.4226 0003502 270.3774  89.6984 14.98338025 47684
STARLINK-34117          
1 64040U 25102U   26080.20259481  .00593533  00000+0  44992-1 0  9997
2 64040  69.9998  85.5440 0009077 265.5288  94.4835 14.99825127 47610
STARLINK-34111          
1 64041U 25102V   26080.25733923  .00003321  00000+0  28593-3 0  9993
2 64041  70.0002  85.3326 0003777 271.0158  89.0568 14.98338739 47463
STARLINK-34049          
1 64042U 25102W   26080.27804792  .00001828  00000+0  16094-3 0  9992
2 64042  70.0006  85.4131 0003532 270.4833  89.5921 14.98343025 47681
STARLINK-34096          
1 64043U 25102X   26080.26134938  .00003109  00000+0  26817-3 0  9998
2 64043  70.0001  85.3514 0003754 270.1073  89.9656 14.98337418 47576
STARLINK-34081          
1 64044U 25102Y   26080.26971183 -.00000873  00000+0 -65383-4 0  9999
2 64044  69.9999  85.3818 0003270 270.1700  89.9084 14.98318055 47624
STARLINK-34033          
1 64045U 25102Z   26080.17788555  .00000392  00000+0  40616-4 0  9995
2 64045  70.0006  85.4622 0003474 268.1807  91.8954 14.98338818 47607
STARLINK-33952          
1 64046U 25102AA  26080.16954158  .00004001  00000+0  34276-3 0  9994
2 64046  70.0004  85.4317 0003930 271.0052  89.0656 14.98343009 47672
STARLINK-33961          
1 64047U 25102AB  26080.18636570  .00026241  00000+0  21996-2 0  9996
2 64047  70.0000  85.4895 0004476 208.0286 152.0632 14.98311582 47558
TIANYI A                
1 64048U 25103A   26080.24170413  .00001714  00000+0  84686-4 0  9999
2 64048  97.4120 154.4387 0001697  90.9495 269.1934 15.19175985 46722
TIANYI B                
1 64049U 25103B   26080.27107905  .00003917  00000+0  18792-3 0  9990
2 64049  97.3854 154.0641 0003724 118.9631 241.1978 15.19453714 46717
TIANYI C                
1 64050U 25103C   26080.27003517  .00003479  00000+0  16727-3 0  9995
2 64050  97.3809 153.8861 0004819 108.4951 251.6808 15.19449068 46710
TIANYI D                
1 64051U 25103D   26080.25730037  .00004479  00000+0  22550-3 0  9990
2 64051  97.3882 153.5870 0003732 127.7230 232.4343 15.17688316 46660
TIANYI E                
1 64052U 25103E   26080.30371329  .00012911  00000+0  56694-3 0  9998
2 64052  97.3804 154.2996 0004430 115.4022 244.7673 15.22053854 46730
TIANYI F                
1 64053U 25103F   26080.26627855  .00004766  00000+0  23530-3 0  9994
2 64053  97.3862 153.7915 0004784 109.7870 250.3881 15.18342989 46705
QPS-SAR-10 (WADATSUMI-I)
1 64055U 25104A   26080.24243635  .00006119  00000+0  48575-3 0  9995
2 64055  42.0048  43.7394 0010777 129.8038 230.3738 15.00936850 46219
TIANQI-16               
1 64058U 25105A   26080.22595298 -.00000003  00000+0  85877-4 0  9996
2 64058  44.9844  53.7151 0012393 318.8507  41.1391 13.99118717 42877
TIANQI-17               
1 64059U 25105B   26080.24421019  .00000018  00000+0  10024-3 0  9994
2 64059  44.9805  52.9890 0011601 321.8042  38.1968 13.99120057 42882
TIANQI-18               
1 64060U 25105C   26080.20773470  .00000006  00000+0  92346-4 0  9998
2 64060  44.9851  53.6252 0011601 328.9867  31.0280 13.99101007 42870
TIANQI-20               
1 64061U 25105D   26080.18915390  .00000005  00000+0  91580-4 0  9993
2 64061  44.9857  53.5285 0011109 322.6573  37.3487 13.99104304 42882
CHINASAT 3B             
1 64062U 25106A   26077.88021403 -.00000043  00000+0  00000+0 0  9996
2 64062   0.0159 346.4554 0001639 347.0190 327.1332  1.00271246  3152
